KUIPER-00061            
1 64521U 25134X   25216.04454852  .00030720  00000+0  87551-3 0  9991
2 64521  51.8723 130.4691 0004995 254.7341 105.3093 15.35806058  7170
KUIPER-00062            
1 64522U 25134Y   25216.25001157 -.00533008  00000+0 -20318-1 0  9996
2 64522  51.8758 129.6761 0006746 251.3315  87.3261 15.28473408  7208
KUIPER-00063            
1 64523U 25134Z   25216.25001157 -.01056050  00000+0 -35760-1 0  9992
2 64523  51.8766 129.2779 0002791 221.1927 296.8062 15.32796499  7202
KUIPER-00064            
1 64524U 25134AA  25216.25001157 -.00382788  00000+0 -11489-1 0  9994
2 64524  51.8771 129.0720 0000280 311.0090 312.2435 15.35481129  7519
KUIPER-00065            
1 64525U 25134AB  25216.25001157 -.00748634  00000+0 -30615-1 0  9993
2 64525  51.8752 129.9540 0007567 261.9995 256.3334 15.26202225  7435
KUIPER-00066            
1 64526U 25134AC  25216.07803431 -.00250334  00000+0 -71999-2 0  9995
2 64526  51.8767 129.9596 0000548 185.6446 174.4534 15.36249162  7184
KUIPER-00069            
1 64816U 25151A   25215.94382644  .00019899  00000+0  57205-3 0  9991
2 64816  51.8781 197.5405 0005192 201.2978 158.7793 15.35789339  4045
KUIPER-00070            
1 64817U 25151B   25216.16668981 -.00677176  00000+0 -25394-1 0  9990
2 64817  51.8794 196.7480 0005534 236.0739 149.5636 15.29201180  4078
